
# Worst residual: 95.87 km
# MJD 61066.000000 (2026 Jan 26  0:00)
ZTF108y = A11vizO = A11v4hW
1 79858U 25000ZYJ 26026.49919926  .00000000  00000-0  00000-0 0 28899
2 79858 032.0767 316.8046 5962244 300.1411 170.6599 01.00681450    06

# Worst residual: 94.98 km
# MJD 61067.000000 (2026 Jan 27  0:00)
ZTF108y = A11vizO = A11v4hW
1 79858U 25000ZYJ 26027.49919926  .00000000  00000-0  00000-0 0 28890
2 79858 032.0414 316.8823 5924145 300.5005 172.6990 01.00673302    03

# Worst residual: 94.45 km
# MJD 61068.000000 (2026 Jan 28  0:00)
ZTF108y = A11vizO = A11v4hW
1 79858U 25000ZYJ 26028.49919926  .00000000  00000-0  00000-0 0 28891
2 79858 032.0167 316.9527 5885104 300.8711 174.7297 01.00664272    07

# Worst residual: 93.96 km
# MJD 61069.000000 (2026 Jan 29  0:00)
ZTF108y = A11vizO = A11v4hW
1 79858U 25000ZYJ 26029.49919926  .00000000  00000-0  00000-0 0 28892
2 79858 031.9690 317.0439 5846238 301.2247 176.7674 01.00659476    05

# Worst residual: 92.15 km
# MJD 61070.000000 (2026 Jan 30  0:00)
ZTF108y = A11vizO = A11v4hW
1 79858U 25000ZYJ 26030.49919926  .00000000  00000-0  00000-0 0 28894
2 79858 031.9311 317.1288 5805966 301.5846 178.8037 01.00655022    08

# Worst residual: 89.27 km
# MJD 61071.000000 (2026 Jan 31  0:00)
ZTF108y = A11vizO = A11v4hW
1 79858U 25000ZYJ 26031.49919926  .00000000  00000-0  00000-0 0 28895
2 79858 031.8917 317.2155 5764773 301.9391 180.8488 01.00651558    05

# Worst residual: 85.64 km
# MJD 61072.000000 (2026 Feb  1  0:00)
ZTF108y = A11vizO = A11v4hW
1 79858U 25000ZYJ 26032.49919926  .00000000  00000-0  00000-0 0 28896
2 79858 031.8513 317.3029 5722878 302.2869 182.9064 01.00647928    01

# Worst residual: 82.25 km
# MJD 61073.000000 (2026 Feb  2  0:00)
ZTF108y = A11vizO = A11v4hW
1 79858U 25000ZYJ 26033.49919926  .00000000  00000-0  00000-0 0 28897
2 79858 031.8104 317.3900 5680553 302.6291 184.9760 01.00643220    07

# Worst residual: 78.85 km
# MJD 61074.000000 (2026 Feb  3  0:00)
ZTF108y = A11vizO = A11v4hW
1 79858U 25000ZYJ 26034.49919926  .00000000  00000-0  00000-0 0 28898
2 79858 031.7693 317.4767 5637975 302.9678 187.0551 01.00637468    02

# Worst residual: 75.64 km
# MJD 61075.000000 (2026 Feb  4  0:00)
ZTF108y = A11vizO = A11v4hW
1 79858U 25000ZYJ 26035.49919926  .00000000  00000-0  00000-0 0 28899
2 79858 031.7282 317.5632 5595171 303.3050 189.1404 01.00631063    03

# Worst residual: 72.75 km
# MJD 61076.000000 (2026 Feb  5  0:00)
ZTF108y = A11vizO = A11v4hW
1 79858U 25000ZYJ 26036.49919926  .00000000  00000-0  00000-0 0 28890
2 79858 031.6871 317.6502 5552066 303.6414 191.2300 01.00624556    04

# Worst residual: 66.59 km
# MJD 61077.000000 (2026 Feb  6  0:00)
ZTF108y = A11vizO = A11v4hW
1 79858U 25000ZYJ 26037.49919926  .00000000  00000-0  00000-0 0 28891
2 79858 031.6494 317.7328 5508972 303.9838 193.3203 01.00615765    09

# Worst residual: 67.83 km
# MJD 61078.000000 (2026 Feb  7  0:00)
ZTF108y = A11vizO = A11v4hW
1 79858U 25000ZYJ 26038.49919926  .00000000  00000-0  00000-0 0 28892
2 79858 031.6041 317.8262 5464545 304.3115 195.4208 01.00612590    06

# Worst residual: 70.01 km
# MJD 61079.000000 (2026 Feb  8  0:00)
ZTF108y = A11vizO = A11v4hW
1 79858U 25000ZYJ 26039.49919926  .00000000  00000-0  00000-0 0 28893
2 79858 031.5685 317.9048 5420792 304.6559 197.5201 01.00612443    06

# Worst residual: 75.85 km
# MJD 61080.000000 (2026 Feb  9  0:00)
ZTF108y = A11vizO = A11v4hW
1 79858U 25000ZYJ 26040.49919926  .00000000  00000-0  00000-0 0 28895
2 79858 031.5194 318.0045 5374949 304.9745 199.6316 01.00602263    01

# Worst residual: 73.17 km
# MJD 61081.000000 (2026 Feb 10  0:00)
ZTF108y = A11vizO = A11v4hW
1 79858U 25000ZYJ 26041.49919926  .00000000  00000-0  00000-0 0 28896
2 79858 031.4837 318.0892 5329280 305.3144 201.7369 01.00597217    05

# Worst residual: 79.81 km
# MJD 61082.000000 (2026 Feb 11  0:00)
ZTF108y = A11vizO = A11v4hW
1 79858U 25000ZYJ 26042.49919926  .00000000  00000-0  00000-0 0 28897
2 79858 031.4276 318.1947 5283529 305.6139 203.8659 01.00594848    08

# Worst residual: 78.76 km
# MJD 61083.000000 (2026 Feb 12  0:00)
ZTF108y = A11vizO = A11v4hW
1 79858U 25000ZYJ 26043.49919926  .00000000  00000-0  00000-0 0 28898
2 79858 031.3917 318.2693 5236503 305.9610 205.9858 01.00589948    04

# Worst residual: 85.73 km
# MJD 61084.000000 (2026 Feb 13  0:00)
ZTF108y = A11vizO = A11v4hW
1 79858U 25000ZYJ 26044.49919926  .00000000  00000-0  00000-0 0 28899
2 79858 031.3434 318.3753 5190234 306.2641 208.1166 01.00583881    01

# Worst residual: 88.11 km
# MJD 61085.000000 (2026 Feb 14  0:00)
ZTF108y = A11vizO = A11v4hW
1 79858U 25000ZYJ 26045.49919926  .00000000  00000-0  00000-0 0 28890
2 79858 031.3107 318.4436 5142578 306.5987 210.2538 01.00578554    09

# Worst residual: 91.65 km
# MJD 61086.000000 (2026 Feb 15  0:00)
ZTF108y = A11vizO = A11v4hW
1 79858U 25000ZYJ 26046.49919926  .00000000  00000-0  00000-0 0 28891
2 79858 031.2580 318.5344 5095084 306.9176 212.3917 01.00574459    09

# Worst residual: 92.22 km
# MJD 61087.000000 (2026 Feb 16  0:00)
ZTF108y = A11vizO = A11v4hW
1 79858U 25000ZYJ 26047.49919926  .00000000  00000-0  00000-0 0 28892
2 79858 031.2197 318.6265 5046933 307.2328 214.5319 01.00571447    02

# Worst residual: 93.16 km
# MJD 61088.000000 (2026 Feb 17  0:00)
ZTF108y = A11vizO = A11v4hW
1 79858U 25000ZYJ 26048.49919926  .00000000  00000-0  00000-0 0 28893
2 79858 031.1731 318.7028 4998662 307.5599 216.6730 01.00566468    07

# Worst residual: 96.44 km
# MJD 61089.000000 (2026 Feb 18  0:00)
ZTF108y = A11vizO = A11v4hW
1 79858U 25000ZYJ 26049.49919926  .00000000  00000-0  00000-0 0 28894
2 79858 031.1242 318.7952 4948964 307.8709 218.8255 01.00563607    04

# Worst residual: 97.24 km
# MJD 61090.000000 (2026 Feb 19  0:00)
ZTF108y = A11vizO = A11v4hW
1 79858U 25000ZYJ 26050.49919926  .00000000  00000-0  00000-0 0 28896
2 79858 031.0790 318.8814 4899331 308.1838 220.9807 01.00561034    08

# Worst residual: 97.44 km
# MJD 61091.000000 (2026 Feb 20  0:00)
ZTF108y = A11vizO = A11v4hW
1 79858U 25000ZYJ 26051.49919926  .00000000  00000-0  00000-0 0 28897
2 79858 031.0335 318.9668 4849345 308.4937 223.1424 01.00558860    07

# Worst residual: 97.03 km
# MJD 61092.000000 (2026 Feb 21  0:00)
ZTF108y = A11vizO = A11v4hW
1 79858U 25000ZYJ 26052.49919926  .00000000  00000-0  00000-0 0 28898
2 79858 030.9879 319.0512 4799095 308.8011 225.3100 01.00556812    01
